[{"OBJECT_NAME":"STARLINK-30223","OBJECT_ID":"2023-119B","EPOCH":"2026-03-09T01:38:18.856320","MEAN_MOTION":15.06195795,"ECCENTRICITY":3.496e-5,"INCLINATION":42.9999,"RA_OF_ASC_NODE":84.8719,"ARG_OF_PERICENTER":174.0802,"MEAN_ANOMALY":186.0046,"EPHEMERIS_TYPE":0,"CLASSIFICATION_TYPE":"U","NORAD_CAT_ID":57603,"ELEMENT_SET_NO":999,"REV_AT_EPOCH":14298,"BSTAR":0.00060034805,"MEAN_MOTION_DOT":8.745e-5,"MEAN_MOTION_DDOT":0},{"OBJECT_NAME":"OBJECT K","OBJECT_ID":"2017-042K","EPOCH":"2026-03-09T21:28:20.621568","MEAN_MOTION":15.07994228,"ECCENTRICITY":0.00097557,"INCLINATION":97.4104,"RA_OF_ASC_NODE":233.8721,"ARG_OF_PERICENTER":49.2775,"MEAN_ANOMALY":310.9299,"EPHEMERIS_TYPE":0,"CLASSIFICATION_TYPE":"U","NORAD_CAT_ID":42834,"ELEMENT_SET_NO":999,"REV_AT_EPOCH":47201,"BSTAR":0.00042776846,"MEAN_MOTION_DOT":6.528e-5,"MEAN_MOTION_DDOT":0}]
